CCSDS_OMM_VERS,COMMENT,CREATION_DATE,ORIGINATOR,OBJECT_NAME,OBJECT_ID,CENTER_NAME,REF_FRAME,TIME_SYSTEM,MEAN_ELEMENT_THEORY,EPOCH,MEAN_MOTION,ECCENTRICITY,INCLINATION,RA_OF_ASC_NODE,ARG_OF_PERICENTER,MEAN_ANOMALY,EPHEMERIS_TYPE,CLASSIFICATION_TYPE,NORAD_CAT_ID,ELEMENT_SET_NO,REV_AT_EPOCH,BSTAR,MEAN_MOTION_DOT,MEAN_MOTION_DDOT,SEMIMAJOR_AXIS,PERIOD,APOAPSIS,PERIAPSIS,OBJECT_TYPE,RCS_SIZE,COUNTRY_CODE,LAUNCH_DATE,SITE,DECAY_DATE,FILE,GP_ID,TLE_LINE0,TLE_LINE1,TLE_LINE2
"2.0","GENERATED VIA SPACE-TRACK.ORG API","2020-12-03T20:15:29","18 SPCS","HST","1990-037B","EARTH","TEME","UTC","SGP4","2020-12-03T03:34:45.498144","15.09498448","0.00029170","28.4702","283.8291","108.5033","271.3505","0","U","20580","999","48144","0.00004813300000","0.00000972","0.0000000000000","6915.868","95.395","539.750","535.716","PAYLOAD","LARGE","US","1990-04-24","AFETR","","2896876","166803995","0 HST","1 20580U 90037B   20338.14913771  .00000972  00000-0  48133-4 0  9994","2 20580  28.4702 283.8291 0002917 108.5033 271.3505 15.09498448481448"
"2.0","GENERATED VIA SPACE-TRACK.ORG API","2020-12-03T07:26:09","18 SPCS","HST","1990-037B","EARTH","TEME","UTC","SGP4","2020-12-03T03:34:45.498144","15.09498448","0.00029170","28.4702","283.8291","108.5033","271.3505","0","U","20580","999","48156","0.00004813300000","0.00000972","0.0000000000000","6915.868","95.395","539.750","535.716","PAYLOAD","LARGE","US","1990-04-24","AFETR","","2896663","166793059","0 HST","1 20580U 90037B   20338.14913771  .00000972  00000-0  48133-4 0  9994","2 20580  28.4702 283.8291 0002917 108.5033 271.3505 15.09498448481561"
"2.0","GENERATED VIA SPACE-TRACK.ORG API","2020-12-04T04:46:55","18 SPCS","HST","1990-037B","EARTH","TEME","UTC","SGP4","2020-12-03T13:43:51.180096","15.09499020","0.00029110","28.4702","281.0310","112.4786","50.5007","0","U","20580","999","48150","0.00004658300000","0.00000947","0.0000000000000","6915.866","95.395","539.744","535.718","PAYLOAD","LARGE","US","1990-04-24","AFETR","","2896992","166849255","0 HST","1 20580U 90037B   20338.57212014  .00000947  00000-0  46583-4 0  9992","2 20580  28.4702 281.0310 0002911 112.4786  50.5007 15.09499020481501"
"2.0","GENERATED VIA SPACE-TRACK.ORG API","2020-12-04T20:40:00","18 SPCS","HST","1990-037B","EARTH","TEME","UTC","SGP4","2020-12-04T03:22:57.512352","15.09499960","0.00029090","28.4701","277.2682","118.2775","261.9286","0","U","20580","999","48159","0.00004591300000","0.00000936","0.0000000000000","6915.863","95.395","539.740","535.717","PAYLOAD","LARGE","US","1990-04-24","AFETR","","2897394","166880007","0 HST","1 20580U 90037B   20339.14094343  .00000936  00000-0  45913-4 0  9993","2 20580  28.4701 277.2682 0002909 118.2775 261.9286 15.09499960481597"
"2.0","GENERATED VIA SPACE-TRACK.ORG API","2020-12-04T20:46:10","18 SPCS","HST","1990-037B","EARTH","TEME","UTC","SGP4","2020-12-04T13:31:57.396000","15.09500437","0.00028970","28.4701","274.4706","122.3805","40.5875","0","U","20580","999","48178","0.00004396600000","0.00000904","0.0000000000000","6915.862","95.395","539.730","535.723","PAYLOAD","LARGE","US","1990-04-24","AFETR","","2897427","166898306","0 HST","1 20580U 90037B   20339.56385875  .00000904  00000-0  43966-4 0  9993","2 20580  28.4701 274.4706 0002897 122.3805  40.5875 15.09500437481787"
"2.0","GENERATED VIA SPACE-TRACK.ORG API","2020-12-05T19:57:45","18 SPCS","HST","1990-037B","EARTH","TEME","UTC","SGP4","2020-12-05T05:11:10.982976","15.09501435","0.00028890","28.4700","270.1560","129.0348","345.3678","0","U","20580","999","48175","0.00004317300000","0.00000891","0.0000000000000","6915.859","95.395","539.722","535.726","PAYLOAD","LARGE","US","1990-04-24","AFETR","","2897994","166957645","0 HST","1 20580U 90037B   20340.21609934 +.00000891 +00000-0 +43173-4 0  9997","2 20580 028.4700 270.1560 0002889 129.0348 345.3678 15.09501435481757"
"2.0","GENERATED VIA SPACE-TRACK.ORG API","2020-12-06T06:56:10","18 SPCS","HST","1990-037B","EARTH","TEME","UTC","SGP4","2020-12-06T02:59:06.777600","15.09502816","0.00028660","28.4699","264.1476","138.2303","241.7648","0","U","20580","999","48201","0.00004251900000","0.00000880","0.0000000000000","6915.855","95.395","539.702","535.738","PAYLOAD","LARGE","US","1990-04-24","AFETR","","2898358","167047198","0 HST","1 20580U 90037B   20341.12438400  .00000880  00000-0  42519-4 0  9997","2 20580  28.4699 264.1476 0002866 138.2303 241.7648 15.09502816482011"
"2.0","GENERATED VIA SPACE-TRACK.ORG API","2020-12-06T20:04:35","18 SPCS","HST","1990-037B","EARTH","TEME","UTC","SGP4","2020-12-06T05:00:15.512832","15.09502902","0.00028620","28.4699","263.5911","139.0687","339.0061","0","U","20580","999","48190","0.00004240200000","0.00000878","0.0000000000000","6915.854","95.395","539.699","535.740","PAYLOAD","LARGE","US","1990-04-24","AFETR","","2898587","167057397","0 HST","1 20580U 90037B   20341.20851288  .00000878  00000-0  42402-4 0  9997","2 20580  28.4699 263.5911 0002862 139.0687 339.0061 15.09502902481901"
"2.0","GENERATED VIA SPACE-TRACK.ORG API","2020-12-06T20:11:23","18 SPCS","HST","1990-037B","EARTH","TEME","UTC","SGP4","2020-12-06T11:33:08.874144","15.09503205","0.00028460","28.4699","261.7862","141.8899","21.7932","0","U","20580","999","48194","0.00004124100000","0.00000859","0.0000000000000","6915.853","95.395","539.687","535.750","PAYLOAD","LARGE","US","1990-04-24","AFETR","","2898589","167076895","0 HST","1 20580U 90037B   20341.48135271 +.00000859 +00000-0 +41241-4 0  9993","2 20580 028.4699 261.7862 0002846 141.8899 021.7932 15.09503205481947"
"2.0","GENERATED VIA SPACE-TRACK.ORG API","2020-12-07T04:40:31","18 SPCS","HST","1990-037B","EARTH","TEME","UTC","SGP4","2020-12-06T20:34:33.898656","15.09503723","0.00028390","28.4698","259.2991","145.8397","265.0708","0","U","20580","999","48200","0.00004121600000","0.00000859","0.0000000000000","6915.852","95.395","539.680","535.753","PAYLOAD","LARGE","US","1990-04-24","AFETR","","2898774","167105162","0 HST","1 20580U 90037B   20341.85733679  .00000859  00000-0  41216-4 0  9992","2 20580  28.4698 259.2991 0002839 145.8397 265.0708 15.09503723482007"
"2.0","GENERATED VIA SPACE-TRACK.ORG API","2020-12-07T17:43:35","18 SPCS","HST","1990-037B","EARTH","TEME","UTC","SGP4","2020-12-07T04:49:49.155168","15.09504077","0.00028240","28.4697","257.0240","149.3108","334.2751","0","U","20580","999","48205","0.00003952700000","0.00000831","0.0000000000000","6915.851","95.395","539.669","535.763","PAYLOAD","LARGE","US","1990-04-24","AFETR","","2899013","167153879","0 HST","1 20580U 90037B   20342.20126337  .00000831  00000-0  39527-4 0  9991","2 20580  28.4697 257.0240 0002824 149.3108 334.2751 15.09504077482057"
"2.0","GENERATED VIA SPACE-TRACK.ORG API","2020-12-07T17:48:54","18 SPCS","HST","1990-037B","EARTH","TEME","UTC","SGP4","2020-12-07T11:21:04.779072","15.09504386","0.00028090","28.4697","255.2266","152.1203","10.9157","0","U","20580","999","48209","0.00003864000000","0.00000817","0.0000000000000","6915.850","95.395","539.658","535.772","PAYLOAD","LARGE","US","1990-04-24","AFETR","","2899016","167175257","0 HST","1 20580U 90037B   20342.47297198 +.00000817 +00000-0 +38640-4 0  9993","2 20580 028.4697 255.2266 0002809 152.1203 010.9157 15.09504386482091"
"2.0","GENERATED VIA SPACE-TRACK.ORG API","2020-12-08T19:33:24","18 SPCS","HST","1990-037B","EARTH","TEME","UTC","SGP4","2020-12-08T04:38:51.993312","15.09505102","0.00027860","28.4696","250.4592","159.6363","327.5233","0","U","20580","999","48220","0.00003609400000","0.00000775","0.0000000000000","6915.848","95.395","539.639","535.786","PAYLOAD","LARGE","US","1990-04-24","AFETR","","2899533","167229661","0 HST","1 20580U 90037B   20343.19365733  .00000775  00000-0  36094-4 0  9998","2 20580  28.4696 250.4592 0002786 159.6363 327.5233 15.09505102482204"
"2.0","GENERATED VIA SPACE-TRACK.ORG API","2020-12-08T07:06:10","18 SPCS","HST","1990-037B","EARTH","TEME","UTC","SGP4","2020-12-08T04:38:51.993312","15.09505102","0.00027860","28.4696","250.4592","159.6363","327.5233","0","U","20580","999","48233","0.00003609400000","0.00000775","0.0000000000000","6915.848","95.395","539.639","535.786","PAYLOAD","LARGE","US","1990-04-24","AFETR","","2899369","167198970","0 HST","1 20580U 90037B   20343.19365733  .00000775  00000-0  36094-4 0  9998","2 20580  28.4696 250.4592 0002786 159.6363 327.5233 15.09505102482338"
"2.0","GENERATED VIA SPACE-TRACK.ORG API","2020-12-09T17:52:09","18 SPCS","HST","1990-037B","EARTH","TEME","UTC","SGP4","2020-12-09T04:27:55.996128","15.09506653","0.00027520","28.4694","243.8942","170.0830","320.7272","0","U","20580","999","48235","0.00004000100000","0.00000839","0.0000000000000","6915.843","95.395","539.611","535.805","PAYLOAD","LARGE","US","1990-04-24","AFETR","","2900048","167328065","0 HST","1 20580U 90037B   20344.18606477 +.00000839 +00000-0 +40001-4 0  9995","2 20580 028.4694 243.8942 0002752 170.0830 320.7272 15.09506653482352"
"2.0","GENERATED VIA SPACE-TRACK.ORG API","2020-12-10T05:43:41","18 SPCS","HST","1990-037B","EARTH","TEME","UTC","SGP4","2020-12-09T21:34:19.851168","15.09507445","0.00027290","28.4692","239.1789","177.6705","234.2035","0","U","20580","999","48246","0.00003885800000","0.00000820","0.0000000000000","6915.841","95.395","539.593","535.818","PAYLOAD","LARGE","US","1990-04-24","AFETR","","2900243","167353959","0 HST","1 20580U 90037B   20344.89884087  .00000820  00000-0  38858-4 0  9995","2 20580  28.4692 239.1789 0002729 177.6705 234.2035 15.09507445482463"
"2.0","GENERATED VIA SPACE-TRACK.ORG API","2020-12-10T06:56:10","18 SPCS","HST","1990-037B","EARTH","TEME","UTC","SGP4","2020-12-10T02:36:10.859328","15.09507655","0.00027170","28.4692","237.7922","179.8950","293.3495","0","U","20580","999","48261","0.00003831300000","0.00000811","0.0000000000000","6915.840","95.395","539.584","535.826","PAYLOAD","LARGE","US","1990-04-24","AFETR","","2900363","167393500","0 HST","1 20580U 90037B   20345.10845902  .00000811  00000-0  38313-4 0  9999","2 20580  28.4692 237.7922 0002717 179.8950 293.3495 15.09507655482615"
